[
    {
        "Altitude(m)": 567349.5381684081,
        "Argument of Periapsis(deg)": 0.013245982221427002,
        "Eccentricity": 0.0,
        "Inclination(deg)": 53.0,
        "Latitude(deg)": -41.98942187701394,
        "Longitude(deg)": 100.84232878377847,
        "Mean Anomaly(deg)": -123.4531142648448,
        "RAAN(deg)": 339.9802867370561,
        "Satellite Name": "Starlink Shell 1 1509",
        "Satellite Number": 1509,
        "Semi-Major Axis(m)": 6931778.249405717,
        "Time(s)": 380
    },
    {
        "Altitude(m)": 567501.220354874,
        "Argument of Periapsis(deg)": 0.013594560700938237,
        "Eccentricity": 0.0,
        "Inclination(deg)": 53.0,
        "Latitude(deg)": -42.35675820176833,
        "Longitude(deg)": 101.48271291394218,
        "Mean Anomaly(deg)": -122.82628306128814,
        "RAAN(deg)": 339.97976796697856,
        "Satellite Name": "Starlink Shell 1 1509",
        "Satellite Number": 1509,
        "Semi-Major Axis(m)": 6931778.249405717,
        "Time(s)": 390
    },
    {
        "Altitude(m)": 567651.1418451068,
        "Argument of Periapsis(deg)": 0.013943139180449475,
        "Eccentricity": 0.0,
        "Inclination(deg)": 53.0,
        "Latitude(deg)": -42.719964312542615,
        "Longitude(deg)": 102.13101641119654,
        "Mean Anomaly(deg)": -122.19945185773135,
        "RAAN(deg)": 339.9792491969011,
        "Satellite Name": "Starlink Shell 1 1509",
        "Satellite Number": 1509,
        "Semi-Major Axis(m)": 6931778.249405717,
        "Time(s)": 400
    },
    {
        "Altitude(m)": 567799.2438649514,
        "Argument of Periapsis(deg)": 0.014291717659960712,
        "Eccentricity": 0.0,
        "Inclination(deg)": 53.0,
        "Latitude(deg)": -43.078940706062895,
        "Longitude(deg)": 102.78734206271729,
        "Mean Anomaly(deg)": -121.57262065417473,
        "RAAN(deg)": 339.9787304268237,
        "Satellite Name": "Starlink Shell 1 1509",
        "Satellite Number": 1509,
        "Semi-Major Axis(m)": 6931778.249405717,
        "Time(s)": 410
    },
    {
        "Altitude(m)": 567945.4683038038,
        "Argument of Periapsis(deg)": 0.014640296139471948,
        "Eccentricity": 0.0,
        "Inclination(deg)": 53.0,
        "Latitude(deg)": -43.43358607667455,
        "Longitude(deg)": 103.4517888811819,
        "Mean Anomaly(deg)": -120.94578945061792,
        "RAAN(deg)": 339.97821165674617,
        "Satellite Name": "Starlink Shell 1 1509",
        "Satellite Number": 1509,
        "Semi-Major Axis(m)": 6931778.249405717,
        "Time(s)": 420
    },
    {
        "Altitude(m)": 568089.7577402624,
        "Argument of Periapsis(deg)": 0.014988874618983185,
        "Eccentricity": 0.0,
        "Inclination(deg)": 53.0,
        "Latitude(deg)": -43.78379733659945,
        "Longitude(deg)": 104.12445223853759,
        "Mean Anomaly(deg)": -120.31895824706126,
        "RAAN(deg)": 339.9776928866687,
        "Satellite Name": "Starlink Shell 1 1509",
        "Satellite Number": 1509,
        "Semi-Major Axis(m)": 6931778.249405717,
        "Time(s)": 430
    },
    {
        "Altitude(m)": 568232.0554674468,
        "Argument of Periapsis(deg)": 0.015337453098494424,
        "Eccentricity": 0.0,
        "Inclination(deg)": 53.0,
        "Latitude(deg)": -44.12946964201112,
        "Longitude(deg)": 104.80542398150158,
        "Mean Anomaly(deg)": -119.69212704350456,
        "RAAN(deg)": 339.97717411659124,
        "Satellite Name": "Starlink Shell 1 1509",
        "Satellite Number": 1509,
        "Semi-Major Axis(m)": 6931778.249405717,
        "Time(s)": 440
    },
    {
        "Altitude(m)": 568372.3055179705,
        "Argument of Periapsis(deg)": 0.01568603157800566,
        "Eccentricity": 0.0,
        "Inclination(deg)": 53.0,
        "Latitude(deg)": -44.470496425329024,
        "Longitude(deg)": 105.49479101604987,
        "Mean Anomaly(deg)": -119.06529583994786,
        "RAAN(deg)": 339.9766553465138,
        "Satellite Name": "Starlink Shell 1 1509",
        "Satellite Number": 1509,
        "Semi-Major Axis(m)": 6931778.249405717,
        "Time(s)": 450
    },
    {
        "Altitude(m)": 568510.4526885967,
        "Argument of Periapsis(deg)": 0.0160346100575169,
        "Eccentricity": 0.0,
        "Inclination(deg)": 53.0,
        "Latitude(deg)": -44.80676943414551,
        "Longitude(deg)": 106.19263538690886,
        "Mean Anomaly(deg)": -118.43846463639109,
        "RAAN(deg)": 339.97613657643626,
        "Satellite Name": "Starlink Shell 1 1509",
        "Satellite Number": 1509,
        "Semi-Major Axis(m)": 6931778.249405717,
        "Time(s)": 460
    },
    {
        "Altitude(m)": 568646.442564529,
        "Argument of Periapsis(deg)": 0.016383188537028134,
        "Eccentricity": 0.0,
        "Inclination(deg)": 53.0,
        "Latitude(deg)": -45.13817877719998,
        "Longitude(deg)": 106.89903433959681,
        "Mean Anomaly(deg)": -117.81163343283434,
        "RAAN(deg)": 339.9756178063588,
        "Satellite Name": "Starlink Shell 1 1509",
        "Satellite Number": 1509,
        "Semi-Major Axis(m)": 6931778.249405717,
        "Time(s)": 470
    },
    {
        "Altitude(m)": 568780.2215433455,
        "Argument of Periapsis(deg)": 0.01673176701653937,
        "Eccentricity": 0.0,
        "Inclination(deg)": 53.0,
        "Latitude(deg)": -45.46461297781642,
        "Longitude(deg)": 107.61405885273741,
        "Mean Anomaly(deg)": -117.18480222927768,
        "RAAN(deg)": 339.97509903628134,
        "Satellite Name": "Starlink Shell 1 1509",
        "Satellite Number": 1509,
        "Semi-Major Axis(m)": 6931778.249405717,
        "Time(s)": 480
    },
    {
        "Altitude(m)": 568911.7368585549,
        "Argument of Periapsis(deg)": 0.017080345496050607,
        "Eccentricity": 0.0,
        "Inclination(deg)": 53.0,
        "Latitude(deg)": -45.78595903522114,
        "Longitude(deg)": 108.33777366716281,
        "Mean Anomaly(deg)": -116.55797102572102,
        "RAAN(deg)": 339.9745802662038,
        "Satellite Name": "Starlink Shell 1 1509",
        "Satellite Number": 1509,
        "Semi-Major Axis(m)": 6931778.249405717,
        "Time(s)": 490
    },
    {
        "Altitude(m)": 569040.9366027594,
        "Argument of Periapsis(deg)": 0.017428923975561842,
        "Eccentricity": 0.0,
        "Inclination(deg)": 53.0,
        "Latitude(deg)": -46.102102494149044,
        "Longitude(deg)": 109.07023729990797,
        "Mean Anomaly(deg)": -115.93113982216418,
        "RAAN(deg)": 339.9740614961264,
        "Satellite Name": "Starlink Shell 1 1509",
        "Satellite Number": 1509,
        "Semi-Major Axis(m)": 6931778.249405717,
        "Time(s)": 500
    },
    {
        "Altitude(m)": 569167.7697504746,
        "Argument of Periapsis(deg)": 0.01777750245507308,
        "Eccentricity": 0.0,
        "Inclination(deg)": 53.0,
        "Latitude(deg)": -46.41292752313967,
        "Longitude(deg)": 109.81150053142096,
        "Mean Anomaly(deg)": -115.30430861860751,
        "RAAN(deg)": 339.9735427260489,
        "Satellite Name": "Starlink Shell 1 1509",
        "Satellite Number": 1509,
        "Semi-Major Axis(m)": 6931778.249405717,
        "Time(s)": 510
    },
    {
        "Altitude(m)": 569292.1861804815,
        "Argument of Periapsis(deg)": 0.018126080934584315,
        "Eccentricity": 0.0,
        "Inclination(deg)": 53.0,
        "Latitude(deg)": -46.71831700191066,
        "Longitude(deg)": 110.56160639315351,
        "Mean Anomaly(deg)": -114.67747741505083,
        "RAAN(deg)": 339.9730239559714,
        "Satellite Name": "Starlink Shell 1 1509",
        "Satellite Number": 1509,
        "Semi-Major Axis(m)": 6931778.249405717,
        "Time(s)": 520
    },
    {
        "Altitude(m)": 569414.1366978085,
        "Argument of Periapsis(deg)": 0.018474659414095554,
        "Eccentricity": 0.0,
        "Inclination(deg)": 53.0,
        "Latitude(deg)": -47.01815261817523,
        "Longitude(deg)": 111.32059014432588,
        "Mean Anomaly(deg)": -114.0506462114941,
        "RAAN(deg)": 339.972505185894,
        "Satellite Name": "Starlink Shell 1 1509",
        "Satellite Number": 1509,
        "Semi-Major Axis(m)": 6931778.249405717,
        "Time(s)": 530
    },
    {
        "Altitude(m)": 569533.5730552989,
        "Argument of Periapsis(deg)": 0.018823237893606792,
        "Eccentricity": 0.0,
        "Inclination(deg)": 53.0,
        "Latitude(deg)": -47.31231497424804,
        "Longitude(deg)": 112.08847772692602,
        "Mean Anomaly(deg)": -113.42381500793734,
        "RAAN(deg)": 339.9719864158165,
        "Satellite Name": "Starlink Shell 1 1509",
        "Satellite Number": 1509,
        "Semi-Major Axis(m)": 6931778.249405717,
        "Time(s)": 540
    },
    {
        "Altitude(m)": 569650.4479747254,
        "Argument of Periapsis(deg)": 0.019171816373118027,
        "Eccentricity": 0.0,
        "Inclination(deg)": 53.0,
        "Latitude(deg)": -47.600683703754505,
        "Longitude(deg)": 112.86528572687722,
        "Mean Anomaly(deg)": -112.79698380438066,
        "RAAN(deg)": 339.97146764573904,
        "Satellite Name": "Starlink Shell 1 1509",
        "Satellite Number": 1509,
        "Semi-Major Axis(m)": 6931778.249405717,
        "Time(s)": 550
    },
    {
        "Altitude(m)": 569764.7151674827,
        "Argument of Periapsis(deg)": 0.019520394852629266,
        "Eccentricity": 0.0,
        "Inclination(deg)": 53.0,
        "Latitude(deg)": -47.88313759872162,
        "Longitude(deg)": 113.65102133097913,
        "Mean Anomaly(deg)": -112.17015260082404,
        "RAAN(deg)": 339.9709488756616,
        "Satellite Name": "Starlink Shell 1 1509",
        "Satellite Number": 1509,
        "Semi-Major Axis(m)": 6931778.249405717,
        "Time(s)": 560
    }
]